[
  { "id": 1, "name": "Adrar", "name_ar": "أدرار", "latitude": 27.8742, "longitude": -0.2939 },
  { "id": 2, "name": "Chlef", "name_ar": "الشلف", "latitude": 36.1647, "longitude": 1.3317 },
  { "id": 3, "name": "Laghouat", "name_ar": "الأغواط", "latitude": 33.7994, "longitude": 2.8628 },
  { "id": 4, "name": "Oum El Bouaghi", "name_ar": "أم البواقي", "latitude": 35.8744, "longitude": 7.1139 },
  { "id": 5, "name": "Batna", "name_ar": "باتنة", "latitude": 35.5500, "longitude": 6.1667 },
  { "id": 6, "name": "Béjaïa", "name_ar": "بجاية", "latitude": 36.7500, "longitude": 5.0833 },
  { "id": 7, "name": "Biskra", "name_ar": "بسكرة", "latitude": 34.8500, "longitude": 5.7333 },
  { "id": 8, "name": "Béchar", "name_ar": "بشار", "latitude": 31.6167, "longitude": -2.2167 },
  { "id": 9, "name": "Blida", "name_ar": "البليدة", "latitude": 36.4667, "longitude": 2.8333 },
  { "id": 10, "name": "Bouira", "name_ar": "البويرة", "latitude": 36.3833, "longitude": 3.9000 },
  { "id": 11, "name": "Tamanrasset", "name_ar": "تمنراست", "latitude": 22.7850, "longitude": 5.5228 },
  { "id": 12, "name": "Tébessa", "name_ar": "تبسة", "latitude": 35.4000, "longitude": 8.1167 },
  { "id": 13, "name": "Tlemcen", "name_ar": "تلمسان", "latitude": 34.8833, "longitude": -1.3167 },
  { "id": 14, "name": "Tiaret", "name_ar": "تيارت", "latitude": 35.3667, "longitude": 1.3167 },
  { "id": 15, "name": "Tizi Ouzou", "name_ar": "تيزي وزو", "latitude": 36.7167, "longitude": 4.0500 },
  { "id": 16, "name": "Alger", "name_ar": "الجزائر", "latitude": 36.7525, "longitude": 3.0420 },
  { "id": 17, "name": "Djelfa", "name_ar": "الجلفة", "latitude": 34.6667, "longitude": 3.2500 },
  { "id": 18, "name": "Jijel", "name_ar": "جيجل", "latitude": 36.8167, "longitude": 5.7667 },
  { "id": 19, "name": "Sétif", "name_ar": "سطيف", "latitude": 36.1833, "longitude": 5.4000 },
  { "id": 20, "name": "Saïda", "name_ar": "سعيدة", "latitude": 34.8333, "longitude": 0.1500 },
  { "id": 21, "name": "Skikda", "name_ar": "سكيكدة", "latitude": 36.8667, "longitude": 6.9000 },
  { "id": 22, "name": "Sidi Bel Abbès", "name_ar": "سيدي بلعباس", "latitude": 35.1833, "longitude": -0.6333 },
  { "id": 23, "name": "Annaba", "name_ar": "عنابة", "latitude": 36.9000, "longitude": 7.7667 },
  { "id": 24, "name": "Guelma", "name_ar": "قالمة", "latitude": 36.4667, "longitude": 7.4333 },
  { "id": 25, "name": "Constantine", "name_ar": "قسنطينة", "latitude": 36.3650, "longitude": 6.6147 },
  { "id": 26, "name": "Médéa", "name_ar": "المدية", "latitude": 36.2667, "longitude": 2.7500 },
  { "id": 27, "name": "Mostaganem", "name_ar": "مستغانم", "latitude": 35.9333, "longitude": 0.0833 },
  { "id": 28, "name": "M'Sila", "name_ar": "المسيلة", "latitude": 35.7000, "longitude": 4.5333 },
  { "id": 29, "name": "Mascara", "name_ar": "معسكر", "latitude": 35.4000, "longitude": 0.1333 },
  { "id": 30, "name": "Ouargla", "name_ar": "ورقلة", "latitude": 31.9500, "longitude": 5.3167 },
  { "id": 31, "name": "Oran", "name_ar": "وهران", "latitude": 35.6969, "longitude": -0.6331 },
  { "id": 32, "name": "El Bayadh", "name_ar": "البيض", "latitude": 33.6833, "longitude": 1.0167 },
  { "id": 33, "name": "Illizi", "name_ar": "إليزي", "latitude": 26.5000, "longitude": 8.4667 },
  { "id": 34, "name": "Bordj Bou Arréridj", "name_ar": "برج بوعريريج", "latitude": 36.0667, "longitude": 4.7667 },
  { "id": 35, "name": "Boumerdès", "name_ar": "بومرداس", "latitude": 36.7500, "longitude": 3.4667 },
  { "id": 36, "name": "El Tarf", "name_ar": "الطارف", "latitude": 36.7667, "longitude": 8.3167 },
  { "id": 37, "name": "Tindouf", "name_ar": "تندوف", "latitude": 27.6742, "longitude": -8.1472 },
  { "id": 38, "name": "Tissemsilt", "name_ar": "تيسمسيلت", "latitude": 35.6000, "longitude": 1.8000 },
  { "id": 39, "name": "El Oued", "name_ar": "الوادي", "latitude": 33.3667, "longitude": 6.8667 },
  { "id": 40, "name": "Khenchela", "name_ar": "خنشلة", "latitude": 35.4333, "longitude": 7.1333 },
  { "id": 41, "name": "Souk Ahras", "name_ar": "سوق أهراس", "latitude": 36.2833, "longitude": 7.9500 },
  { "id": 42, "name": "Tipaza", "name_ar": "تيبازة", "latitude": 36.5833, "longitude": 2.4333 },
  { "id": 43, "name": "Mila", "name_ar": "ميلة", "latitude": 36.4500, "longitude": 6.2667 },
  { "id": 44, "name": "Aïn Defla", "name_ar": "عين الدفلى", "latitude": 36.2500, "longitude": 1.9667 },
  { "id": 45, "name": "Naâma", "name_ar": "النعامة", "latitude": 33.2667, "longitude": -0.3167 },
  { "id": 46, "name": "Aïn Témouchent", "name_ar": "عين تموشنت", "latitude": 35.2833, "longitude": -1.1333 },
  { "id": 47, "name": "Ghardaïa", "name_ar": "غرداية", "latitude": 32.4833, "longitude": 3.6667 },
  { "id": 48, "name": "Relizane", "name_ar": "غليزان", "latitude": 35.7333, "longitude": 0.5500 },
  { "id": 49, "name": "Timimoun", "name_ar": "تيميمون", "latitude": 29.2639, "longitude": 0.2408 },
  { "id": 50, "name": "Bordj Badji Mokhtar", "name_ar": "برج باجي مختار", "latitude": 21.3275, "longitude": 0.9481 },
  { "id": 51, "name": "Ouled Djellal", "name_ar": "أولاد جلال", "latitude": 34.4283, "longitude": 5.0656 },
  { "id": 52, "name": "Béni Abbès", "name_ar": "بني عباس", "latitude": 30.1322, "longitude": -2.1661 },
  { "id": 53, "name": "In Salah", "name_ar": "عين صالح", "latitude": 27.1961, "longitude": 2.4650 },
  { "id": 54, "name": "In Guezzam", "name_ar": "عين قزام", "latitude": 19.5669, "longitude": 5.7722 },
  { "id": 55, "name": "Touggourt", "name_ar": "تقرت", "latitude": 33.1000, "longitude": 6.0667 },
  { "id": 56, "name": "Djanet", "name_ar": "جانت", "latitude": 24.5547, "longitude": 9.4847 },
  { "id": 57, "name": "El M'Ghair", "name_ar": "المغير", "latitude": 33.9500, "longitude": 5.9167 },
  { "id": 58, "name": "El Meniaa", "name_ar": "المنيعة", "latitude": 30.5833, "longitude": 2.8833 },
  { "id": 59, "name": "Aflou", "name_ar": "أفلو", "latitude": 34.1128, "longitude": 2.1025 },
  { "id": 60, "name": "El Abiodh Sidi Cheikh", "name_ar": "الأبيض سيدي الشيخ", "latitude": 32.8922, "longitude": 0.5481 },
  { "id": 61, "name": "El Aricha", "name_ar": "العريشة", "latitude": 34.2150, "longitude": -1.2500 },
  { "id": 62, "name": "El Kantara", "name_ar": "القنطرة", "latitude": 35.2167, "longitude": 5.7000 },
  { "id": 63, "name": "Barika", "name_ar": "بريكة", "latitude": 35.3833, "longitude": 5.3667 },
  { "id": 64, "name": "Bou Saâda", "name_ar": "بوسعادة", "latitude": 35.2167, "longitude": 4.1833 },
  { "id": 65, "name": "Bir El Ater", "name_ar": "بئر العاتر", "latitude": 34.7500, "longitude": 8.0667 },
  { "id": 66, "name": "Ksar El Boukhari", "name_ar": "قصر البخاري", "latitude": 35.8833, "longitude": 2.7500 },
  { "id": 67, "name": "Ksar Chellala", "name_ar": "قصر الشلالة", "latitude": 35.2167, "longitude": 2.3167 },
  { "id": 68, "name": "Aïn Oussara", "name_ar": "عين وسارة", "latitude": 35.4500, "longitude": 2.9000 },
  { "id": 69, "name": "Messaad", "name_ar": "مسعد", "latitude": 34.1667, "longitude": 3.5000 }
]
